CCSDS_OMM_VERS = 2.0
CREATION_DATE  = 
ORIGINATOR     = 

OBJECT_NAME    = STARLINK-36616
OBJECT_ID      = 2026-022AA
CENTER_NAME    = EARTH
REF_FRAME      = TEME
TIME_SYSTEM    = UTC
MEAN_ELEMENT_THEORY = SGP/SGP4

EPOCH          = 2026-02-12T06:00:02.999808
MEAN_MOTION    = 15.91126773
ECCENTRICITY   = .00011927
INCLINATION    = 97.2788
RA_OF_ASC_NODE = 75.9729
ARG_OF_PERICENTER = 71.1439
MEAN_ANOMALY   = 311.4086

EPHEMERIS_TYPE = 0
CLASSIFICATION_TYPE = U
NORAD_CAT_ID   = 67672
ELEMENT_SET_NO = 999
REV_AT_EPOCH   = 280
BSTAR          = -.61186681E-2
MEAN_MOTION_DOT = -.1908684E-1
MEAN_MOTION_DDOT = .98976717E-3

CCSDS_OMM_VERS = 2.0
CREATION_DATE  = 
ORIGINATOR     = 

OBJECT_NAME    = COSMOS 2600
OBJECT_ID      = 2026-023A
CENTER_NAME    = EARTH
REF_FRAME      = TEME
TIME_SYSTEM    = UTC
MEAN_ELEMENT_THEORY = SGP/SGP4

EPOCH          = 2026-02-12T05:42:09.858240
MEAN_MOTION    = 15.81939345
ECCENTRICITY   = .0002013
INCLINATION    = 96.6491
RA_OF_ASC_NODE = 119.6785
ARG_OF_PERICENTER = 67.2235
MEAN_ANOMALY   = 292.9248

EPHEMERIS_TYPE = 0
CLASSIFICATION_TYPE = U
NORAD_CAT_ID   = 67674
ELEMENT_SET_NO = 999
REV_AT_EPOCH   = 102
BSTAR          = .44132365E-3
MEAN_MOTION_DOT = .89784E-3
MEAN_MOTION_DDOT = 0

CCSDS_OMM_VERS = 2.0
CREATION_DATE  = 
ORIGINATOR     = 

OBJECT_NAME    = 2026-023B
OBJECT_ID      = 2026-023B
CENTER_NAME    = EARTH
REF_FRAME      = TEME
TIME_SYSTEM    = UTC
MEAN_ELEMENT_THEORY = SGP/SGP4

EPOCH          = 2026-02-12T06:54:04.862592
MEAN_MOTION    = 15.22356298
ECCENTRICITY   = .00173987
INCLINATION    = 96.6409
RA_OF_ASC_NODE = 119.1817
ARG_OF_PERICENTER = 221.8172
MEAN_ANOMALY   = 138.1738

EPHEMERIS_TYPE = 0
CLASSIFICATION_TYPE = U
NORAD_CAT_ID   = 67675
ELEMENT_SET_NO = 999
REV_AT_EPOCH   = 99
BSTAR          = .78549857E-3
MEAN_MOTION_DOT = .18165E-3
MEAN_MOTION_DDOT = 0

CCSDS_OMM_VERS = 2.0
CREATION_DATE  = 
ORIGINATOR     = 

OBJECT_NAME    = 2026-023C
OBJECT_ID      = 2026-023C
CENTER_NAME    = EARTH
REF_FRAME      = TEME
TIME_SYSTEM    = UTC
MEAN_ELEMENT_THEORY = SGP/SGP4

EPOCH          = 2026-02-12T06:53:45.974688
MEAN_MOTION    = 15.22415801
ECCENTRICITY   = .00185965
INCLINATION    = 96.6444
RA_OF_ASC_NODE = 119.1931
ARG_OF_PERICENTER = 211.1550
MEAN_ANOMALY   = 148.8588

EPHEMERIS_TYPE = 0
CLASSIFICATION_TYPE = U
NORAD_CAT_ID   = 67676
ELEMENT_SET_NO = 999
REV_AT_EPOCH   = 115
BSTAR          = .63881484E-3
MEAN_MOTION_DOT = .1479E-3
MEAN_MOTION_DDOT = 0

CCSDS_OMM_VERS = 2.0
CREATION_DATE  = 
ORIGINATOR     = 

OBJECT_NAME    = 2026-023D
OBJECT_ID      = 2026-023D
CENTER_NAME    = EARTH
REF_FRAME      = TEME
TIME_SYSTEM    = UTC
MEAN_ELEMENT_THEORY = SGP/SGP4

EPOCH          = 2026-02-12T06:54:25.093152
MEAN_MOTION    = 15.22295505
ECCENTRICITY   = .00187157
INCLINATION    = 96.6475
RA_OF_ASC_NODE = 119.1756
ARG_OF_PERICENTER = 216.5433
MEAN_ANOMALY   = 143.4530

EPHEMERIS_TYPE = 0
CLASSIFICATION_TYPE = U
NORAD_CAT_ID   = 67677
ELEMENT_SET_NO = 999
REV_AT_EPOCH   = 98
BSTAR          = .5922058E-3
MEAN_MOTION_DOT = .13657E-3
MEAN_MOTION_DDOT = 0

CCSDS_OMM_VERS = 2.0
CREATION_DATE  = 
ORIGINATOR     = 

OBJECT_NAME    = 2026-023E
OBJECT_ID      = 2026-023E
CENTER_NAME    = EARTH
REF_FRAME      = TEME
TIME_SYSTEM    = UTC
MEAN_ELEMENT_THEORY = SGP/SGP4

EPOCH          = 2026-02-11T19:51:23.403744
MEAN_MOTION    = 15.22371343
ECCENTRICITY   = .0018578
INCLINATION    = 96.6369
RA_OF_ASC_NODE = 118.7768
ARG_OF_PERICENTER = 217.5890
MEAN_ANOMALY   = 142.4051

EPHEMERIS_TYPE = 0
CLASSIFICATION_TYPE = U
NORAD_CAT_ID   = 67678
ELEMENT_SET_NO = 999
REV_AT_EPOCH   = 91
BSTAR          = .59392574E-3
MEAN_MOTION_DOT = .13727E-3
MEAN_MOTION_DDOT = 0

CCSDS_OMM_VERS = 2.0
CREATION_DATE  = 
ORIGINATOR     = 

OBJECT_NAME    = 2026-023F
OBJECT_ID      = 2026-023F
CENTER_NAME    = EARTH
REF_FRAME      = TEME
TIME_SYSTEM    = UTC
MEAN_ELEMENT_THEORY = SGP/SGP4

EPOCH          = 2026-02-12T06:53:02.448096
MEAN_MOTION    = 15.22516913
ECCENTRICITY   = .00205156
INCLINATION    = 96.6375
RA_OF_ASC_NODE = 121.6791
ARG_OF_PERICENTER = 210.3025
MEAN_ANOMALY   = 149.7029

EPHEMERIS_TYPE = 0
CLASSIFICATION_TYPE = U
NORAD_CAT_ID   = 67679
ELEMENT_SET_NO = 999
REV_AT_EPOCH   = 97
BSTAR          = .64682575E-3
MEAN_MOTION_DOT = .15038E-3
MEAN_MOTION_DDOT = 0

CCSDS_OMM_VERS = 2.0
CREATION_DATE  = 
ORIGINATOR     = 

OBJECT_NAME    = 2026-023G
OBJECT_ID      = 2026-023G
CENTER_NAME    = EARTH
REF_FRAME      = TEME
TIME_SYSTEM    = UTC
MEAN_ELEMENT_THEORY = SGP/SGP4

EPOCH          = 2026-02-11T18:16:07.603104
MEAN_MOTION    = 15.22461471
ECCENTRICITY   = .00219813
INCLINATION    = 96.6308
RA_OF_ASC_NODE = 121.2169
ARG_OF_PERICENTER = 208.3069
MEAN_ANOMALY   = 151.6977

EPHEMERIS_TYPE = 0
CLASSIFICATION_TYPE = U
NORAD_CAT_ID   = 67680
ELEMENT_SET_NO = 999
REV_AT_EPOCH   = 89
BSTAR          = .18544454E-3
MEAN_MOTION_DOT = .426E-4
MEAN_MOTION_DDOT = 0

CCSDS_OMM_VERS = 2.0
CREATION_DATE  = 
ORIGINATOR     = 

OBJECT_NAME    = 2026-023H
OBJECT_ID      = 2026-023H
CENTER_NAME    = EARTH
REF_FRAME      = TEME
TIME_SYSTEM    = UTC
MEAN_ELEMENT_THEORY = SGP/SGP4

EPOCH          = 2026-02-11T18:15:54.484128
MEAN_MOTION    = 15.22485070
ECCENTRICITY   = .0021935
INCLINATION    = 96.6434
RA_OF_ASC_NODE = 121.2090
ARG_OF_PERICENTER = 207.5112
MEAN_ANOMALY   = 152.4967

EPHEMERIS_TYPE = 0
CLASSIFICATION_TYPE = U
NORAD_CAT_ID   = 67681
ELEMENT_SET_NO = 999
REV_AT_EPOCH   = 89
BSTAR          = .13313E-3
MEAN_MOTION_DOT = .3043E-4
MEAN_MOTION_DDOT = 0

CCSDS_OMM_VERS = 2.0
CREATION_DATE  = 
ORIGINATOR     = 

OBJECT_NAME    = 2026-023J
OBJECT_ID      = 2026-023J
CENTER_NAME    = EARTH
REF_FRAME      = TEME
TIME_SYSTEM    = UTC
MEAN_ELEMENT_THEORY = SGP/SGP4

EPOCH          = 2026-02-12T06:52:54.255648
MEAN_MOTION    = 15.22554976
ECCENTRICITY   = .00222992
INCLINATION    = 96.6403
RA_OF_ASC_NODE = 121.6886
ARG_OF_PERICENTER = 202.8526
MEAN_ANOMALY   = 157.1723

EPHEMERIS_TYPE = 0
CLASSIFICATION_TYPE = U
NORAD_CAT_ID   = 67682
ELEMENT_SET_NO = 999
REV_AT_EPOCH   = 97
BSTAR          = .70665834E-3
MEAN_MOTION_DOT = .16473E-3
MEAN_MOTION_DDOT = 0

CCSDS_OMM_VERS = 2.0
CREATION_DATE  = 
ORIGINATOR     = 

OBJECT_NAME    = ISS OBJECT XZ
OBJECT_ID      = 1998-067XZ
CENTER_NAME    = EARTH
REF_FRAME      = TEME
TIME_SYSTEM    = UTC
MEAN_ELEMENT_THEORY = SGP/SGP4

EPOCH          = 2026-02-12T06:33:11.486304
MEAN_MOTION    = 15.49768314
ECCENTRICITY   = .00107658
INCLINATION    = 51.6304
RA_OF_ASC_NODE = 197.9345
ARG_OF_PERICENTER = 104.2322
MEAN_ANOMALY   = 255.9863

EPHEMERIS_TYPE = 0
CLASSIFICATION_TYPE = U
NORAD_CAT_ID   = 67683
ELEMENT_SET_NO = 999
REV_AT_EPOCH   = 84
BSTAR          = .73115219E-3
MEAN_MOTION_DOT = .41232E-3
MEAN_MOTION_DDOT = 0

CCSDS_OMM_VERS = 2.0
CREATION_DATE  = 
ORIGINATOR     = 

OBJECT_NAME    = GXIBA-1
OBJECT_ID      = 1998-067YA
CENTER_NAME    = EARTH
REF_FRAME      = TEME
TIME_SYSTEM    = UTC
MEAN_ELEMENT_THEORY = SGP/SGP4

EPOCH          = 2026-02-12T06:29:52.385280
MEAN_MOTION    = 15.50457317
ECCENTRICITY   = .00126432
INCLINATION    = 51.6300
RA_OF_ASC_NODE = 197.9208
ARG_OF_PERICENTER = 98.4527
MEAN_ANOMALY   = 261.7896

EPHEMERIS_TYPE = 0
CLASSIFICATION_TYPE = U
NORAD_CAT_ID   = 67684
ELEMENT_SET_NO = 999
REV_AT_EPOCH   = 84
BSTAR          = .1379127E-2
MEAN_MOTION_DOT = .80591E-3
MEAN_MOTION_DDOT = 0

