STARLINK-36616          
1 67672U 26022AA  26043.25003472 -.01908684  98977-3 -61187-2 0  9994
2 67672  97.2788  75.9729 0001192  71.1439 311.4086 15.91126773  2803
COSMOS 2600             
1 67674U 26023A   26043.23761410  .00089784  00000+0  44132-3 0  9994
2 67674  96.6491 119.6785 0002013  67.2235 292.9248 15.81939345  1022
2026-023B               
1 67675U 26023B   26043.28755628  .00018165  00000+0  78550-3 0  9990
2 67675  96.6409 119.1817 0017398 221.8172 138.1738 15.22356298   998
2026-023C               
1 67676U 26023C   26043.28733767  .00014790  00000+0  63881-3 0  9992
2 67676  96.6444 119.1931 0018596 211.1550 148.8588 15.22415801  1154
2026-023D               
1 67677U 26023D   26043.28779043  .00013657  00000+0  59221-3 0  9994
2 67677  96.6475 119.1756 0018715 216.5433 143.4530 15.22295505   981
2026-023E               
1 67678U 26023E   26042.82735421  .00013727  00000+0  59393-3 0  9994
2 67678  96.6369 118.7768 0018578 217.5890 142.4051 15.22371343   912
2026-023F               
1 67679U 26023F   26043.28683389  .00015038  00000+0  64683-3 0  9996
2 67679  96.6375 121.6791 0020515 210.3025 149.7029 15.22516913   979
2026-023G               
1 67680U 26023G   26042.76119911  .00004260  00000+0  18544-3 0  9995
2 67680  96.6308 121.2169 0021981 208.3069 151.6977 15.22461471   898
2026-023H               
1 67681U 26023H   26042.76104727  .00003043  00000+0  13313-3 0  9992
2 67681  96.6434 121.2090 0021935 207.5112 152.4967 15.22485070   890
2026-023J               
1 67682U 26023J   26043.28673907  .00016473  00000+0  70666-3 0  9997
2 67682  96.6403 121.6886 0022299 202.8526 157.1723 15.22554976   978
ISS OBJECT XZ           
1 67683U 98067XZ  26043.27304961  .00041232  00000+0  73115-3 0  9998
2 67683  51.6304 197.9345 0010765 104.2322 255.9863 15.49768314   840
GXIBA-1                 
1 67684U 98067YA  26043.27074520  .00080591  00000+0  13791-2 0  9998
2 67684  51.6300 197.9208 0012643  98.4527 261.7896 15.50457317   844
